NORAD_CAT_ID,OBJECT_NAME,OBJECT_TYPE,EPOCH,MEAN_MOTION,ECCENTRICITY,INCLINATION,RA_OF_ASC_NODE,ARG_OF_PERICENTER,MEAN_ANOMALY,BSTAR,MEAN_MOTION_DOT,MEAN_MOTION_DDOT,TLE_LINE0,TLE_LINE1,TLE_LINE2,SEMIMAJOR_AXIS,PERIOD,APOGEE,PERIGEE,DECAYED
56486.0,STARLINK-6201,PAYLOAD,2024-03-28 12:04:57,14.98328952,0.0003072,69.9984,117.4844,270.8604,89.2203,0.00016673,1.897e-05,0.0,0 STARLINK-6201,1 56486U 23064AQ  24088.50343757  .00001897  00000-0  16673-3 0  9991,2 56486  69.9984 117.4844 0003072 270.8604  89.2203 14.98328952 49215,6950.196,96.107,574.196,569.926,0.0
56486.0,STARLINK-6201,PAYLOAD,2024-03-29 04:06:17,14.98337165,0.0003034,69.9984,115.8011,270.8906,89.1905,0.00011663,1.299e-05,0.0,0 STARLINK-6201,1 56486U 23064AQ  24089.17103374  .00001299  00000-0  11663-3 0  9994,2 56486  69.9984 115.8011 0003034 270.8906  89.1905 14.98337165 49670,6950.171,96.107,574.144,569.927,0.0
56486.0,STARLINK-6201,PAYLOAD,2024-03-29 12:06:57,14.98336455,0.0003056,69.9984,114.9595,270.5874,89.4935,0.00010175,1.121e-05,0.0,0 STARLINK-6201,1 56486U 23064AQ  24089.50483360  .00001121  00000-0  10175-3 0  9998,2 56486  69.9984 114.9595 0003056 270.5874  89.4935 14.98336455 49365,6950.173,96.107,574.162,569.914,0.0
56486.0,STARLINK-6201,PAYLOAD,2024-03-29 18:31:29,14.98345683,0.0003178,69.9982,114.2859,270.7419,89.3376,2.6454e-05,2.23e-06,0.0,0 STARLINK-6201,1 56486U 23064AQ  24089.77186757  .00000223  00000-0  26454-4 0  9997,2 56486  69.9982 114.2859 0003178 270.7419  89.3376 14.98345683 49407,6950.144,96.106,574.218,569.801,0.0
56486.0,STARLINK-6201,PAYLOAD,2024-03-30 04:08:17,14.98348528,0.0003074,69.9983,113.2762,270.1751,89.9056,7.8199e-05,8.41e-06,0.0,0 STARLINK-6201,1 56486U 23064AQ  24090.17242743  .00000841  00000-0  78199-4 0  9990,2 56486  69.9983 113.2762 0003074 270.1751  89.9056 14.98348528 49826,6950.136,96.106,574.137,569.864,0.0
56486.0,STARLINK-6201,PAYLOAD,2024-03-30 10:32:49,14.98350618,0.0003052,69.9983,112.6026,271.772,88.3089,8.9187e-05,9.72e-06,0.0,0 STARLINK-6201,1 56486U 23064AQ  24090.43946252  .00000972  00000-0  89187-4 0  9999,2 56486  69.9983 112.6026 0003052 271.7720  88.3089 14.98350618 49508,6950.129,96.106,574.115,569.873,0.0
56486.0,STARLINK-6201,PAYLOAD,2024-03-30 18:33:29,14.9835992,0.0002987,69.9984,111.7607,274.1278,85.9539,-0.00016559,-2.07e-05,0.0,0 STARLINK-6201,1 56486U 23064AQ  24090.77325820 -.00002070  00000-0 -16559-3 0  9993,2 56486  69.9984 111.7607 0002987 274.1278  85.9539 14.98359920 49558,6950.1,96.105,574.041,569.889,0.0
56486.0,STARLINK-6201,PAYLOAD,2024-03-31 05:46:25,14.98345,0.0002858,69.9985,110.5827,270.0497,90.0334,1.8748e-05,1.31e-06,0.0,0 STARLINK-6201,1 56486U 23064AQ  24091.24057796  .00000131  00000-0  18748-4 0  9997,2 56486  69.9985 110.5827 0002858 270.0497  90.0334 14.98345000 49986,6950.147,96.106,573.998,570.025,0.0
56486.0,STARLINK-6201,PAYLOAD,2024-03-31 10:34:49,14.9834494,0.0002874,69.9984,110.0775,269.6415,90.4414,-7.51e-08,-9.4e-07,0.0,0 STARLINK-6201,1 56486U 23064AQ  24091.44085627 -.00000094  00000-0 -75100-7 0  9991,2 56486  69.9984 110.0775 0002874 269.6415  90.4414 14.98344940 49653,6950.147,96.106,574.009,570.014,0.0
56486.0,STARLINK-6201,PAYLOAD,2024-03-31 18:35:30,14.98339938,0.0002915,69.9985,109.2363,272.435,87.6476,-5.8683e-05,-7.93e-06,0.0,0 STARLINK-6201,1 56486U 23064AQ  24091.77465804 -.00000793  00000-0 -58683-4 0  9996,2 56486  69.9985 109.2363 0002915 272.4350  87.6476 14.98339938 49706,6950.162,96.106,574.053,570.001,0.0
56486.0,STARLINK-6201,PAYLOAD,2024-04-01 04:12:18,14.9833963,0.0002925,69.9983,108.226,270.9722,89.1102,-0.00012258,-1.556e-05,0.0,0 STARLINK-6201,1 56486U 23064AQ  24092.17521668 -.00001556  00000-0 -12258-3 0  9997,2 56486  69.9983 108.2260 0002925 270.9722  89.1102 14.98339630 50126,6950.163,96.106,574.061,569.995,0.0
56486.0,STARLINK-6201,PAYLOAD,2024-04-01 10:36:51,14.98305045,0.0002802,69.9983,107.5523,269.7007,90.3831,0.00038455,4.495e-05,0.0,0 STARLINK-6201,1 56486U 23064AQ  24092.44226558  .00004495  00000-0  38455-3 0  9997,2 56486  69.9983 107.5523 0002802 269.7007  90.3831 14.98305045 50166,6950.27,96.109,574.083,570.188,0.0
56486.0,STARLINK-6201,PAYLOAD,2024-04-01 18:37:31,14.98338301,0.0003018,69.9983,106.7105,270.2151,89.8662,-0.00011885,-1.511e-05,0.0,0 STARLINK-6201,1 56486U 23064AQ  24092.77605370 -.00001511  00000-0 -11885-3 0  9992,2 56486  69.9983 106.7105 0003018 270.2151  89.8662 14.98338301 50212,6950.167,96.106,574.13,569.935,0.0
56486.0,STARLINK-6201,PAYLOAD,2024-04-02 10:38:51,14.98337197,0.0003092,69.9982,105.027,270.2049,89.8755,-4.5783e-05,-6.39e-06,0.0,0 STARLINK-6201,1 56486U 23064AQ  24093.44364905 -.00000639  00000-0 -45783-4 0  9998,2 56486  69.9982 105.0270 0003092 270.2049  89.8755 14.98337197 49958,6950.171,96.107,574.185,569.887,0.0
56486.0,STARLINK-6201,PAYLOAD,2024-04-02 18:39:30,14.98340901,0.0003148,69.9983,104.1854,270.1925,89.8873,5.1858e-05,5.26e-06,0.0,0 STARLINK-6201,1 56486U 23064AQ  24093.77744201  .00000526  00000-0  51858-4 0  9998,2 56486  69.9983 104.1854 0003148 270.1925  89.8873 14.98340901 50366,6950.159,96.106,574.212,569.836,0.0
56486.0,STARLINK-6201,PAYLOAD,2024-04-03 10:40:51,14.98337507,0.0003169,69.9981,102.5021,269.8962,90.1834,8.4588e-05,9.17e-06,0.0,0 STARLINK-6201,1 56486U 23064AQ  24094.44503971  .00000917  00000-0  84588-4 0  9990,2 56486  69.9981 102.5021 0003169 269.8962  90.1834 14.98337507 50103,6950.17,96.107,574.237,569.832,0.0
56486.0,STARLINK-6201,PAYLOAD,2024-04-04 04:18:20,14.98328244,0.0003101,69.9982,100.6504,269.7374,90.343,-6.8239e-05,-9.07e-06,0.0,0 STARLINK-6201,1 56486U 23064AQ  24095.17940831 -.00000907  00000-0 -68239-4 0  9997,2 56486  69.9982 100.6504 0003101 269.7374  90.3430 14.98328244 50574,6950.198,96.107,574.219,569.908,0.0
56486.0,STARLINK-6201,PAYLOAD,2024-04-04 10:42:53,14.98327907,0.0003086,69.9982,99.9771,269.6579,90.4227,-5.7783e-05,-7.82e-06,0.0,0 STARLINK-6201,1 56486U 23064AQ  24095.44644832 -.00000782  00000-0 -57783-4 0  9992,2 56486  69.9982  99.9771 0003086 269.6579  90.4227 14.98327907 50253,6950.199,96.107,574.209,569.92,0.0
56486.0,STARLINK-6201,PAYLOAD,2024-04-04 17:07:25,14.98328948,0.0003062,69.9984,99.3037,270.9766,89.1042,-4.6773e-05,-6.51e-06,0.0,0 STARLINK-6201,1 56486U 23064AQ  24095.71348751 -.00000651  00000-0 -46773-4 0  9995,2 56486  69.9984  99.3037 0003062 270.9766  89.1042 14.98328948 50291,6950.196,96.107,574.189,569.933,0.0
56486.0,STARLINK-6201,PAYLOAD,2024-04-05 05:56:29,14.983333,0.0003018,69.9983,97.957,270.8133,89.268,-6.2976e-05,-8.44e-06,0.0,0 STARLINK-6201,1 56486U 23064AQ  24096.24756418 -.00000844  00000-0 -62976-4 0  9994,2 56486  69.9983  97.9570 0003018 270.8133  89.2680 14.98333300 50730,6950.183,96.107,574.145,569.95,0.0
56486.0,STARLINK-6201,PAYLOAD,2024-04-05 09:08:45,14.98332753,0.0003104,69.9982,97.6204,270.7594,89.3209,-5.1483e-05,-7.07e-06,0.0,0 STARLINK-6201,1 56486U 23064AQ  24096.38108400 -.00000707  00000-0 -51483-4 0  9990,2 56486  69.9982  97.6204 0003104 270.7594  89.3209 14.98332753 50397,6950.184,96.107,574.207,569.892,0.0
56486.0,STARLINK-6201,PAYLOAD,2024-04-05 17:09:25,14.98336634,0.0003145,69.9983,96.7786,272.0898,87.9901,-0.00017015,-2.123e-05,0.0,0 STARLINK-6201,1 56486U 23064AQ  24096.71488367 -.00002123  00000-0 -17015-3 0  9996,2 56486  69.9983  96.7786 0003145 272.0898  87.9901 14.98336634 50441,6950.172,96.107,574.223,569.852,0.0
56486.0,STARLINK-6201,PAYLOAD,2024-04-06 05:58:30,14.98323479,0.0003014,69.9983,95.4321,270.9249,89.1564,1.9692e-05,1.42e-06,0.0,0 STARLINK-6201,1 56486U 23064AQ  24097.24896913  .00000142  00000-0  19692-4 0  9996,2 56486  69.9983  95.4321 0003014 270.9249  89.1564 14.98323479 50884,6950.213,96.107,574.173,569.983,0.0
56486.0,STARLINK-6201,PAYLOAD,2024-04-06 10:46:55,14.98324017,0.0003002,69.9984,94.9271,271.0414,89.0401,2.394e-05,1.93e-06,0.0,0 STARLINK-6201,1 56486U 23064AQ  24097.44924937  .00000193  00000-0  23940-4 0  9993,2 56486  69.9984  94.9271 0003002 271.0414  89.0401 14.98324017 50558,6950.211,96.107,574.163,569.99,0.0
56486.0,STARLINK-6201,PAYLOAD,2024-04-06 17:11:27,14.98325605,0.0003007,69.9984,94.2537,271.0408,89.0406,1.8911e-05,1.33e-06,0.0,0 STARLINK-6201,1 56486U 23064AQ  24097.71628923  .00000133  00000-0  18911-4 0  9995,2 56486  69.9984  94.2537 0003007 271.0408  89.0406 14.98325605 50597,6950.206,96.107,574.161,569.982,0.0
56486.0,STARLINK-6201,PAYLOAD,2024-04-07 09:12:47,14.98328778,0.0003004,69.9985,92.5705,271.0808,89.0007,1.5824e-05,9.6e-07,0.0,0 STARLINK-6201,1 56486U 23064AQ  24098.38388822  .00000096  00000-0  15824-4 0  9998,2 56486  69.9985  92.5705 0003004 271.0808  89.0007 14.98328778 51050,6950.197,96.107,574.15,569.974,0.0
56486.0,STARLINK-6201,PAYLOAD,2024-04-07 17:13:28,14.98328455,0.0003012,69.9986,91.7287,271.1437,88.9377,2.0445e-05,1.51e-06,0.0,0 STARLINK-6201,1 56486U 23064AQ  24098.71768848  .00000151  00000-0  20445-4 0  9992,2 56486  69.9986  91.7287 0003012 271.1437  88.9377 14.98328455 50740,6950.198,96.107,574.156,569.969,0.0
56486.0,STARLINK-6201,PAYLOAD,2024-04-08 09:14:48,14.98329601,0.000301,69.9985,90.0452,270.7167,89.3647,4.8946e-05,4.91e-06,0.0,0 STARLINK-6201,1 56486U 23064AQ  24099.38528737  .00000491  00000-0  48946-4 0  9990,2 56486  69.9985  90.0452 0003010 270.7167  89.3647 14.98329601 51209,6950.194,96.107,574.151,569.967,0.0
56486.0,STARLINK-6201,PAYLOAD,2024-04-08 23:40:01,14.98329251,0.0002991,69.9986,88.5302,270.6966,89.385,4.3836e-06,-4.1e-07,0.0,0 STARLINK-6201,1 56486U 23064AQ  24099.98612885 -.00000041  00000-0  43836-5 0  9990,2 56486  69.9986  88.5302 0002991 270.6966  89.3850 14.98329251 50935,6950.195,96.107,574.139,569.981,0.0
56486.0,STARLINK-6201,PAYLOAD,2024-04-09 09:16:50,14.98324442,0.0003139,69.9977,87.5208,271.7082,88.3718,-5.629e-05,-7.65e-06,0.0,0 STARLINK-6201,1 56486U 23064AQ  24100.38669363 -.00000765  00000-0 -56290-4 0  9991,2 56486  69.9977  87.5208 0003139 271.7082  88.3718 14.98324442 51351,6950.21,96.107,574.257,569.893,0.0
